{
  "type": "FeatureCollection",
  "features": [
    {
      "type": "Feature",
      "properties": {
        "norad_id": 34492,
        "name": "IRIDIUM 33 DEB",
        "group": "iridium-33-debris",
        "lat": 60.72445106456177,
        "lon": -21.360308946478433,
        "alt_km": 925.8467428029553,
        "timestamp": "2025-12-18T10:51:26.195806+00:00",
        "meta_object_name": "IRIDIUM 33 DEB",
        "meta_object_id": "1997-051GH",
        "meta_epoch": "2025-12-17T10:01:30.958752",
        "meta_mean_motion": 14.25820052,
        "meta_eccentricity": 0.01887417,
        "meta_inclination": 86.4709,
        "meta_ra_of_asc_node": 332.7379,
        "meta_arg_of_pericenter": 222.99,
        "meta_mean_anomaly": 291.1876,
        "meta_ephemeris_type": 0,
        "meta_classification_type": "U",
        "meta_norad_cat_id": 34492,
        "meta_element_set_no": 999,
        "meta_rev_at_epoch": 85125,
        "meta_bstar": 0.0026623829,
        "meta_mean_motion_dot": 7.653e-05,
        "meta_mean_motion_ddot": 0,
        "tle_line1": "1 34492U 97051GH  25351.41771943  .00007653  00000+0  26624-2 0  9998",
        "tle_line2": "2 34492  86.4709 332.7379 0188741 222.9900 291.1876 14.25820052851259"
      },
      "geometry": {
        "type": "Point",
        "coordinates": [
          -21.360308946478433,
          60.72445106456177
        ]
      }
    },
    {
      "type": "Feature",
      "properties": {
        "norad_id": 34497,
        "name": "IRIDIUM 33 DEB",
        "group": "iridium-33-debris",
        "lat": -25.33320521646607,
        "lon": 48.194622336297925,
        "alt_km": 751.1931068410004,
        "timestamp": "2025-12-18T10:51:26.195816+00:00",
        "meta_object_name": "IRIDIUM 33 DEB",
        "meta_object_id": "1997-051GN",
        "meta_epoch": "2025-12-17T15:30:05.778144",
        "meta_mean_motion": 14.27467752,
        "meta_eccentricity": 0.00784008,
        "meta_inclination": 86.2772,
        "meta_ra_of_asc_node": 50.3054,
        "meta_arg_of_pericenter": 323.5192,
        "meta_mean_anomaly": 189.1471,
        "meta_ephemeris_type": 0,
        "meta_classification_type": "U",
        "meta_norad_cat_id": 34497,
        "meta_element_set_no": 999,
        "meta_rev_at_epoch": 86953,
        "meta_bstar": 0.00049729194,
        "meta_mean_motion_dot": 1.279e-05,
        "meta_mean_motion_ddot": 0,
        "tle_line1": "1 34497U 97051GN  25351.64590021  .00001279  00000+0  49729-3 0  9994",
        "tle_line2": "2 34497  86.2772  50.3054 0078400 323.5192 189.1471 14.27467752869539"
      },
      "geometry": {
        "type": "Point",
        "coordinates": [
          48.194622336297925,
          -25.33320521646607
        ]
      }
    },
    {
      "type": "Feature",
      "properties": {
        "norad_id": 34508,
        "name": "IRIDIUM 33 DEB",
        "group": "iridium-33-debris",
        "lat": -2.216053617384876,
        "lon": 100.08075248542227,
        "alt_km": 810.4314028223416,
        "timestamp": "2025-12-18T10:51:26.195827+00:00",
        "meta_object_name": "IRIDIUM 33 DEB",
        "meta_object_id": "1997-051GZ",
        "meta_epoch": "2025-12-17T18:10:21.228960",
        "meta_mean_motion": 14.38466145,
        "meta_eccentricity": 0.00664596,
        "meta_inclination": 86.3706,
        "meta_ra_of_asc_node": 100.5162,
        "meta_arg_of_pericenter": 156.8278,
        "meta_mean_anomaly": 203.5942,
        "meta_ephemeris_type": 0,
        "meta_classification_type": "U",
        "meta_norad_cat_id": 34508,
        "meta_element_set_no": 999,
        "meta_rev_at_epoch": 87381,
        "meta_bstar": 0.00095192127,
        "meta_mean_motion_dot": 3e-05,
        "meta_mean_motion_ddot": 0,
        "tle_line1": "1 34508U 97051GZ  25351.75719015  .00003000  00000+0  95192-3 0  9994",
        "tle_line2": "2 34508  86.3706 100.5162 0066459 156.8278 203.5942 14.38466145873818"
      },
      "geometry": {
        "type": "Point",
        "coordinates": [
          100.08075248542227,
          -2.216053617384876
        ]
      }
    },
    {
      "type": "Feature",
      "properties": {
        "norad_id": 34521,
        "name": "IRIDIUM 33 DEB",
        "group": "iridium-33-debris",
        "lat": -31.88066357219322,
        "lon": 25.776622288380523,
        "alt_km": 689.5234078000758,
        "timestamp": "2025-12-18T10:51:26.195837+00:00",
        "meta_object_name": "IRIDIUM 33 DEB",
        "meta_object_id": "1997-051HN",
        "meta_epoch": "2025-12-17T20:14:00.326112",
        "meta_mean_motion": 14.63409507,
        "meta_eccentricity": 0.00021745,
        "meta_inclination": 86.3796,
        "meta_ra_of_asc_node": 28.3017,
        "meta_arg_of_pericenter": 190.3281,
        "meta_mean_anomaly": 169.7887,
        "meta_ephemeris_type": 0,
        "meta_classification_type": "U",
        "meta_norad_cat_id": 34521,
        "meta_element_set_no": 999,
        "meta_rev_at_epoch": 88547,
        "meta_bstar": 0.00065322814,
        "meta_mean_motion_dot": 3.399e-05,
        "meta_mean_motion_ddot": 0,
        "tle_line1": "1 34521U 97051HN  25351.84305933  .00003399  00000+0  65323-3 0  9993",
        "tle_line2": "2 34521  86.3796  28.3017 0002174 190.3281 169.7887 14.63409507885472"
      },
      "geometry": {
        "type": "Point",
        "coordinates": [
          25.776622288380523,
          -31.88066357219322
        ]
      }
    },
    {
      "type": "Feature",
      "properties": {
        "norad_id": 34525,
        "name": "IRIDIUM 33 DEB",
        "group": "iridium-33-debris",
        "lat": 85.03605586096836,
        "lon": 91.32479590196925,
        "alt_km": 736.770074689809,
        "timestamp": "2025-12-18T10:51:26.195847+00:00",
        "meta_object_name": "IRIDIUM 33 DEB",
        "meta_object_id": "1997-051HS",
        "meta_epoch": "2025-12-17T15:03:01.274112",
        "meta_mean_motion": 14.4291718,
        "meta_eccentricity": 0.00065505,
        "meta_inclination": 86.3725,
        "meta_ra_of_asc_node": 44.7578,
        "meta_arg_of_pericenter": 83.9317,
        "meta_mean_anomaly": 38.4452,
        "meta_ephemeris_type": 0,
        "meta_classification_type": "U",
        "meta_norad_cat_id": 34525,
        "meta_element_set_no": 999,
        "meta_rev_at_epoch": 88158,
        "meta_bstar": 0.00028829346,
        "meta_mean_motion_dot": 9.83e-06,
        "meta_mean_motion_ddot": 0,
        "tle_line1": "1 34525U 97051HS  25351.62709808  .00000983  00000+0  28829-3 0  9998",
        "tle_line2": "2 34525  86.3725  44.7578 0006550  83.9317  38.4452 14.42917180881587"
      },
      "geometry": {
        "type": "Point",
        "coordinates": [
          91.32479590196925,
          85.03605586096836
        ]
      }
    },
    {
      "type": "Feature",
      "properties": {
        "norad_id": 34529,
        "name": "IRIDIUM 33 DEB",
        "group": "iridium-33-debris",
        "lat": -65.47258727388817,
        "lon": 24.965663529868834,
        "alt_km": 766.480623583795,
        "timestamp": "2025-12-18T10:51:26.195858+00:00",
        "meta_object_name": "IRIDIUM 33 DEB",
        "meta_object_id": "1997-051HW",
        "meta_epoch": "2025-12-17T03:29:20.563296",
        "meta_mean_motion": 14.40619267,
        "meta_eccentricity": 0.00053513,
        "meta_inclination": 86.3637,
        "meta_ra_of_asc_node": 33.5337,
        "meta_arg_of_pericenter": 163.3615,
        "meta_mean_anomaly": 196.7761,
        "meta_ephemeris_type": 0,
        "meta_classification_type": "U",
        "meta_norad_cat_id": 34529,
        "meta_element_set_no": 999,
        "meta_rev_at_epoch": 88205,
        "meta_bstar": 9.9400993e-05,
        "meta_mean_motion_dot": 3.37e-06,
        "meta_mean_motion_ddot": 0,
        "tle_line1": "1 34529U 97051HW  25351.14537689  .00000337  00000+0  99401-4 0  9993",
        "tle_line2": "2 34529  86.3637  33.5337 0005351 163.3615 196.7761 14.40619267882051"
      },
      "geometry": {
        "type": "Point",
        "coordinates": [
          24.965663529868834,
          -65.47258727388817
        ]
      }
    },
    {
      "type": "Feature",
      "properties": {
        "norad_id": 34538,
        "name": "IRIDIUM 33 DEB",
        "group": "iridium-33-debris",
        "lat": 6.68482072955166,
        "lon": -177.3830287670054,
        "alt_km": 768.1990397932213,
        "timestamp": "2025-12-18T10:51:26.195869+00:00",
        "meta_object_name": "IRIDIUM 33 DEB",
        "meta_object_id": "1997-051JF",
        "meta_epoch": "2025-12-17T06:19:36.292800",
        "meta_mean_motion": 14.42675143,
        "meta_eccentricity": 0.00323823,
        "meta_inclination": 86.2769,
        "meta_ra_of_asc_node": 3.5747,
        "meta_arg_of_pericenter": 312.4941,
        "meta_mean_anomaly": 170.8226,
        "meta_ephemeris_type": 0,
        "meta_classification_type": "U",
        "meta_norad_cat_id": 34538,
        "meta_element_set_no": 999,
        "meta_rev_at_epoch": 87821,
        "meta_bstar": 0.00073550599,
        "meta_mean_motion_dot": 2.479e-05,
        "meta_mean_motion_ddot": 0,
        "tle_line1": "1 34538U 97051JF  25351.26361450  .00002479  00000+0  73551-3 0  9993",
        "tle_line2": "2 34538  86.2769   3.5747 0032382 312.4941 170.8226 14.42675143878210"
      },
      "geometry": {
        "type": "Point",
        "coordinates": [
          -177.3830287670054,
          6.68482072955166
        ]
      }
    }
  ]
}